LEMUR-2-PETERG          
1 42841U 17042S   26068.48235713  .00023240  00000+0  81076-3 0  9993
2 42841  97.3980 253.6596 0003700 341.6938  18.4169 15.29611459473171
STARLINK-2741           
1 48684U 21044AY  26068.44792036  .00000167  00000+0  17769-4 0  9995
2 48684  53.1596  79.0490 0001247  97.7321 262.3821 15.30197658264295
